[{"OBJECT_NAME":"SKYKRAFT-1A","OBJECT_ID":"2023-001AX","EPOCH":"2026-03-09T17:03:19.828224","MEAN_MOTION":15.28083228,"ECCENTRICITY":0.00112767,"INCLINATION":97.3349,"RA_OF_ASC_NODE":127.629,"ARG_OF_PERICENTER":121.5092,"MEAN_ANOMALY":238.7251,"EPHEMERIS_TYPE":0,"CLASSIFICATION_TYPE":"U","NORAD_CAT_ID":55054,"ELEMENT_SET_NO":999,"REV_AT_EPOCH":17652,"BSTAR":0.0003006872,"MEAN_MOTION_DOT":8.177e-5,"MEAN_MOTION_DDOT":0},{"OBJECT_NAME":"STARLINK-36553","OBJECT_ID":"2026-012P","EPOCH":"2026-03-09T02:03:26.552736","MEAN_MOTION":15.27569407,"ECCENTRICITY":0.00018577,"INCLINATION":43.0032,"RA_OF_ASC_NODE":317.4469,"ARG_OF_PERICENTER":254.6779,"MEAN_ANOMALY":105.3867,"EPHEMERIS_TYPE":0,"CLASSIFICATION_TYPE":"U","NORAD_CAT_ID":67506,"ELEMENT_SET_NO":999,"REV_AT_EPOCH":767,"BSTAR":0.0013010866,"MEAN_MOTION_DOT":0.00035703,"MEAN_MOTION_DDOT":0}]
